{
    "links": {
        "self": "http://www.neowsapp.com/rest/v1/neo/3249865?api_key=iIulBulltgU6a56xZRHN4H3l9WmuAYTsLGpBGhQ2"
    },
    "id": "3249865",
    "neo_reference_id": "3249865",
    "name": "(2004 QA2)",
    "designation": "2004 QA2",
    "nasa_jpl_url": "http://ssd.jpl.nasa.gov/sbdb.cgi?sstr=3249865",
    "absolute_magnitude_h": 22.3,
    "estimated_diameter": {
        "kilometers": {
            "estimated_diameter_min": 0.0921626549,
            "estimated_diameter_max": 0.2060819612
        },
        "meters": {
            "estimated_diameter_min": 92.1626548503,
            "estimated_diameter_max": 206.0819612321
        },
        "miles": {
            "estimated_diameter_min": 0.057267201,
            "estimated_diameter_max": 0.1280533543
        },
        "feet": {
            "estimated_diameter_min": 302.370924539,
            "estimated_diameter_max": 676.1219416887
        }
    },
    "is_potentially_hazardous_asteroid": false,
    "close_approach_data": [
        {
            "close_approach_date": "1902-08-29",
            "close_approach_date_full": "1902-Aug-29 13:10",
            "epoch_date_close_approach": -2125133400000,
            "relative_velocity": {
                "kilometers_per_second": "16.1412366989",
                "kilometers_per_hour": "58108.4521161728",
                "miles_per_hour": "36106.332371852"
            },
            "miss_distance": {
                "astronomical": "0.2804052059",
                "lunar": "109.0776250951",
                "kilometers": "41948021.539551433",
                "miles": "26065291.9210304554"
            },
            "orbiting_body": "Earth"
        },
        {
            "close_approach_date": "2001-05-22",
            "close_approach_date_full": "2001-May-22 18:26",
            "epoch_date_close_approach": 990555960000,
            "relative_velocity": {
                "kilometers_per_second": "18.1336082806",
                "kilometers_per_hour": "65280.9898102223",
                "miles_per_hour": "40563.0683629128"
            },
            "miss_distance": {
                "astronomical": "0.3886717418",
                "lunar": "151.1933075602",
                "kilometers": "58144464.702469966",
                "miles": "36129295.0284428908"
            },
            "orbiting_body": "Earth"
        },
        {
            "close_approach_date": "2004-08-10",
            "close_approach_date_full": "2004-Aug-10 17:46",
            "epoch_date_close_approach": 1092159960000,
            "relative_velocity": {
                "kilometers_per_second": "10.1056610202",
                "kilometers_per_hour": "36380.3796726062",
                "miles_per_hour": "22605.3531360147"
            },
            "miss_distance": {
                "astronomical": "0.0764243757",
                "lunar": "29.7290821473",
                "kilometers": "11432923.820799759",
                "miles": "7104089.4412403142"
            },
            "orbiting_body": "Earth"
        },
        {
            "close_approach_date": "2103-06-27",
            "close_approach_date_full": "2103-Jun-27 15:59",
            "epoch_date_close_approach": 4212403140000,
            "relative_velocity": {
                "kilometers_per_second": "9.3472525596",
                "kilometers_per_hour": "33650.1092145126",
                "miles_per_hour": "20908.8692505398"
            },
            "miss_distance": {
                "astronomical": "0.1206989242",
                "lunar": "46.9518815138",
                "kilometers": "18056301.971611454",
                "miles": "11219665.7823439052"
            },
            "orbiting_body": "Earth"
        },
        {
            "close_approach_date": "2106-09-07",
            "close_approach_date_full": "2106-Sep-07 01:21",
            "epoch_date_close_approach": 4313265660000,
            "relative_velocity": {
                "kilometers_per_second": "18.7116766298",
                "kilometers_per_hour": "67362.0358674154",
                "miles_per_hour": "41856.1494532837"
            },
            "miss_distance": {
                "astronomical": "0.3821577462",
                "lunar": "148.6593632718",
                "kilometers": "57169984.835520594",
                "miles": "35523781.3171644372"
            },
            "orbiting_body": "Earth"
        }
    ],
    "orbital_data": {
        "orbit_id": "13",
        "orbit_determination_date": "2017-04-06 09:12:27",
        "first_observation_date": "2004-08-20",
        "last_observation_date": "2004-09-20",
        "data_arc_in_days": 31,
        "observations_used": 33,
        "orbit_uncertainty": "7",
        "minimum_orbit_intersection": ".0314576",
        "jupiter_tisserand_invariant": "3.534",
        "epoch_osculation": "2459000.5",
        "eccentricity": ".5145933949176608",
        "semi_major_axis": "2.123633133911308",
        "inclination": "8.358732083546164",
        "ascending_node_longitude": "132.8129452191493",
        "orbital_period": "1130.362304208976",
        "perihelion_distance": "1.030825549972257",
        "perihelion_argument": "159.4519010147147",
        "aphelion_distance": "3.21644071785036",
        "perihelion_time": "2458859.448520629502",
        "mean_anomaly": "44.92235134195662",
        "mean_motion": ".3184819580938936",
        "equinox": "J2000",
        "orbit_class": {
            "orbit_class_type": "AMO",
            "orbit_class_description": "Near-Earth asteroid orbits similar to that of 1221 Amor",
            "orbit_class_range": "1.017 AU < q (perihelion) < 1.3 AU"
        }
    },
    "is_sentry_object": false
}